{
    "links": {
        "self": "http://www.neowsapp.com/rest/v1/neo/3842744?api_key=iIulBulltgU6a56xZRHN4H3l9WmuAYTsLGpBGhQ2"
    },
    "id": "3842744",
    "neo_reference_id": "3842744",
    "name": "(2019 LZ)",
    "designation": "2019 LZ",
    "nasa_jpl_url": "http://ssd.jpl.nasa.gov/sbdb.cgi?sstr=3842744",
    "absolute_magnitude_h": 24.0,
    "estimated_diameter": {
        "kilometers": {
            "estimated_diameter_min": 0.0421264611,
            "estimated_diameter_max": 0.0941976306
        },
        "meters": {
            "estimated_diameter_min": 42.1264610556,
            "estimated_diameter_max": 94.1976305719
        },
        "miles": {
            "estimated_diameter_min": 0.0261761612,
            "estimated_diameter_max": 0.0585316759
        },
        "feet": {
            "estimated_diameter_min": 138.2101784897,
            "estimated_diameter_max": 309.0473542854
        }
    },
    "is_potentially_hazardous_asteroid": false,
    "close_approach_data": [
        {
            "close_approach_date": "2012-05-25",
            "close_approach_date_full": "2012-May-25 02:32",
            "epoch_date_close_approach": 1337913120000,
            "relative_velocity": {
                "kilometers_per_second": "10.4530842639",
                "kilometers_per_hour": "37631.1033500749",
                "miles_per_hour": "23382.5041899396"
            },
            "miss_distance": {
                "astronomical": "0.0896238261",
                "lunar": "34.8636683529",
                "kilometers": "13407533.485810407",
                "miles": "8331054.9919293366"
            },
            "orbiting_body": "Earth"
        },
        {
            "close_approach_date": "2019-05-30",
            "close_approach_date_full": "2019-May-30 22:47",
            "epoch_date_close_approach": 1559256420000,
            "relative_velocity": {
                "kilometers_per_second": "10.6757325882",
                "kilometers_per_hour": "38432.6373175938",
                "miles_per_hour": "23880.5462265904"
            },
            "miss_distance": {
                "astronomical": "0.105688287",
                "lunar": "41.112743643",
                "kilometers": "15810742.61914869",
                "miles": "9824339.902844322"
            },
            "orbiting_body": "Earth"
        },
        {
            "close_approach_date": "2024-09-01",
            "close_approach_date_full": "2024-Sep-01 01:19",
            "epoch_date_close_approach": 1725153540000,
            "relative_velocity": {
                "kilometers_per_second": "4.0698650242",
                "kilometers_per_hour": "14651.5140869698",
                "miles_per_hour": "9103.8810725397"
            },
            "miss_distance": {
                "astronomical": "1.5905756188",
                "lunar": "618.7339157132",
                "kilometers": "237946724.646411956",
                "miles": "147853238.6495027528"
            },
            "orbiting_body": "Juptr"
        },
        {
            "close_approach_date": "2026-06-14",
            "close_approach_date_full": "2026-Jun-14 19:12",
            "epoch_date_close_approach": 1781464320000,
            "relative_velocity": {
                "kilometers_per_second": "13.8351408356",
                "kilometers_per_hour": "49806.5070080146",
                "miles_per_hour": "30947.8265350633"
            },
            "miss_distance": {
                "astronomical": "0.2942676588",
                "lunar": "114.4701192732",
                "kilometers": "44021814.966366756",
                "miles": "27353887.4034869928"
            },
            "orbiting_body": "Earth"
        }
    ],
    "orbital_data": {
        "orbit_id": "1",
        "orbit_determination_date": "2019-06-04 17:42:03",
        "first_observation_date": "2019-05-08",
        "last_observation_date": "2019-06-04",
        "data_arc_in_days": 27,
        "observations_used": 31,
        "orbit_uncertainty": "7",
        "minimum_orbit_intersection": ".0914122",
        "jupiter_tisserand_invariant": "3.348",
        "epoch_osculation": "2459000.5",
        "eccentricity": ".5219707709429459",
        "semi_major_axis": "2.308156279117516",
        "inclination": "15.80094399026481",
        "ascending_node_longitude": "65.97245863886327",
        "orbital_period": "1280.844012595056",
        "perihelion_distance": "1.103366166649745",
        "perihelion_argument": "174.777269439099",
        "aphelion_distance": "3.512946391585287",
        "perihelion_time": "2458629.347984241183",
        "mean_anomaly": "104.3177189097864",
        "mean_motion": ".2810646702174306",
        "equinox": "J2000",
        "orbit_class": {
            "orbit_class_type": "AMO",
            "orbit_class_description": "Near-Earth asteroid orbits similar to that of 1221 Amor",
            "orbit_class_range": "1.017 AU < q (perihelion) < 1.3 AU"
        }
    },
    "is_sentry_object": false
}